IRIDIUM 155             
1 43573U 18061E   26148.15729586  .00000275  00000+0  91171-4 0  9998
2 43573  86.3973  65.0472 0002291  82.0004 278.1452 14.34218014410486
IRIDIUM 154             
1 43574U 18061F   26148.13826442  .00000266  00000+0  87782-4 0  9999
2 43574  86.3970  65.1879 0002188  86.0893 274.0553 14.34217989410534
IRIDIUM 163             
1 43575U 18061G   26148.18901059  .00000002  00000+0 -63821-5 0  9991
2 43575  86.3967  65.0826 0002247  84.8734 275.2718 14.34217505410516
IRIDIUM 156             
1 43576U 18061H   26148.16363994 -.00000027  00000+0 -16743-4 0  9998
2 43576  86.3966  65.1004 0002121  79.3319 280.8115 14.34217243410505
IRIDIUM 164             
1 43577U 18061J   26148.14461373  .00000170  00000+0  53761-4 0  9995
2 43577  86.3972  65.1484 0002042  86.4315 273.7114 14.34219700410546
IRIDIUM 159             
1 43578U 18061K   26148.18266691  .00000041  00000+0  74609-5 0  9998
2 43578  86.3968  65.0698 0002309  86.7642 273.3818 14.34218016410513
IRIDIUM 180             
1 43922U 19002A   26148.11239481  .00000008  00000+0 -43490-5 0  9995
2 43922  86.3977   1.9907 0002094  88.8335 271.3100 14.34217600386119
IRIDIUM 176             
1 43923U 19002B   26148.10852287  .00000791  00000+0  12148-3 0  9992
2 43923  86.6101   1.9390 0002227  88.1330 272.0142 14.72255727396292
IRIDIUM 168             
1 43924U 19002C   26148.10605263  .00000050  00000+0  10826-4 0  9993
2 43924  86.3985   2.0702 0002143  87.3810 272.7631 14.34217858386098
IRIDIUM 173             
1 43925U 19002D   26148.09336752  .00000037  00000+0  60164-5 0  9992
2 43925  86.3980   1.9652 0002263  86.1587 273.9867 14.34217807386073
IRIDIUM 169             
1 43926U 19002E   26148.15062441  .00000222  00000+0  66011-4 0  9993
2 43926  86.4244  33.5689 0002526  72.1006 288.0468 14.38609519387346
IRIDIUM 172             
1 43927U 19002F   26148.08702392  .00000022  00000+0  91379-6 0  9997
2 43927  86.3976   1.9755 0002123  88.8307 271.3132 14.34216930386082
IRIDIUM 175             
1 43928U 19002G   26148.17444854  .00000363  00000+0  10122-3 0  9996
2 43928  86.4494 298.8896 0001281 320.9590  39.1519 14.43599983396093
IRIDIUM 171             
1 43929U 19002H   26148.13776490  .00000133  00000+0  40544-4 0  9994
2 43929  86.3990   2.2583 0002078  83.9752 276.1680 14.34217279386080
IRIDIUM 170             
1 43930U 19002J   26148.11469167  .00000786  00000+0  12080-3 0  9991
2 43930  86.6102   1.9389 0002383  90.0627 270.0864 14.72258600396307
IRIDIUM 167             
1 43931U 19002K   26148.13142208  .00000035  00000+0  53577-5 0  9993
2 43931  86.3980   1.9792 0002004  79.2316 280.9105 14.34217818386087
IRIDIUM 181             
1 56726U 23068S   26148.13959051  .00000335  00000+0  93550-4 0  9995
2 56726  86.4509  65.1692 0002198  89.8875 270.2578 14.43309582159548
IRIDIUM 177             
1 56727U 23068T   26148.04204565  .00000824  00000+0  10493-3 0  9996
2 56727  86.1959 338.3621 0002505  85.6397 274.5111 14.80242116163384
IRIDIUM 174             
1 56728U 23068U   26148.10232000  .00000839  00000+0  12915-3 0  9996
2 56728  86.6109   2.0893 0002639  88.1784 271.9736 14.72243435163064
IRIDIUM 178             
1 56729U 23068V   26148.16639648  .00000978  00000+0  12526-3 0  9994
2 56729  86.6558  33.7261 0002455  90.3156 269.8347 14.80226602163405
IRIDIUM 179             
1 56730U 23068W   26148.16102502  .00001176  00000+0  15132-3 0  9997
2 56730  86.6796  42.6472 0002390  89.7923 270.3572 14.80222747163409
